NORAD_CAT_ID,OBJECT_NAME,OBJECT_TYPE,EPOCH,MEAN_MOTION,ECCENTRICITY,INCLINATION,RA_OF_ASC_NODE,ARG_OF_PERICENTER,MEAN_ANOMALY,BSTAR,MEAN_MOTION_DOT,MEAN_MOTION_DDOT,TLE_LINE0,TLE_LINE1,TLE_LINE2,SEMIMAJOR_AXIS,PERIOD,APOGEE,PERIGEE,DECAYED
53243.0,STARLINK-4047,PAYLOAD,2024-07-29 14:18:30,15.08846712,0.0001991,53.2178,323.8628,95.7257,264.3962,0.00015211,2.134e-05,0.0,0 STARLINK-4047,1 53243U 22086B   24211.59619149  .00002134  00000-0  15211-3 0  9992,2 53243  53.2178 323.8628 0001991  95.7257 264.3962 15.08846712112482,6917.86,95.437,541.102,538.348,0.0
53243.0,STARLINK-4047,PAYLOAD,2024-07-29 17:29:17,15.0884298,0.0001427,53.2186,323.2695,90.6796,269.436,0.00010634,1.405e-05,0.0,0 STARLINK-4047,1 53243U 22086B   24211.72867312  .00001405  00000-0  10634-3 0  9998,2 53243  53.2186 323.2695 0001427  90.6796 269.4360 15.08842980111980,6917.871,95.437,540.723,538.749,0.0
53243.0,STARLINK-4047,PAYLOAD,2024-07-30 14:09:18,15.08840297,0.0001494,53.2186,319.4042,87.9489,272.1674,1.4557e-05,-5.6e-07,0.0,0 STARLINK-4047,1 53243U 22086B   24212.58979512 -.00000056  00000-0  14557-4 0  9990,2 53243  53.2186 319.4042 0001494  87.9489 272.1674 15.08840297112636,6917.879,95.438,540.778,538.711,0.0
53243.0,STARLINK-4047,PAYLOAD,2024-07-31 12:24:43,15.08847656,9.28e-05,53.2193,315.2458,87.1649,272.9449,-0.00033348,-5.592e-05,0.0,0 STARLINK-4047,1 53243U 22086B   24213.51716903 -.00005592  00000-0 -33348-3 0  9996,2 53243  53.2193 315.2458 0000928  87.1649 272.9449 15.08847656112252,6917.857,95.437,540.364,539.08,0.0
53243.0,STARLINK-4047,PAYLOAD,2024-07-31 14:00:06,15.08836529,0.0001196,53.2172,314.9494,101.2607,258.8519,-0.00010292,-1.925e-05,0.0,0 STARLINK-4047,1 53243U 22086B   24213.58340648 -.00001925  00000-0 -10292-3 0  9991,2 53243  53.2172 314.9494 0001196 101.2607 258.8519 15.08836529112781,6917.891,95.438,540.583,538.929,0.0
53243.0,STARLINK-4047,PAYLOAD,2024-07-31 15:35:29,15.08835769,0.0001241,53.2169,314.6477,87.7367,272.3767,8.1194e-05,1.004e-05,0.0,0 STARLINK-4047,1 53243U 22086B   24213.64964358  .00001004  00000-0  81194-4 0  9994,2 53243  53.2169 314.6477 0001241  87.7367 272.3767 15.08835769112799,6917.893,95.438,540.617,538.9,0.0
53243.0,STARLINK-4047,PAYLOAD,2024-07-31 23:32:24,15.08840951,0.0001187,53.2174,313.1607,83.6825,276.4302,0.0001167,1.57e-05,0.0,0 STARLINK-4047,1 53243U 22086B   24213.98084031  .00001570  00000-0  11670-3 0  9991,2 53243  53.2174 313.1607 0001187  83.6825 276.4302 15.08840951112325,6917.877,95.437,540.564,538.921,0.0
53243.0,STARLINK-4047,PAYLOAD,2024-08-01 12:15:28,15.08849213,0.0001854,53.2198,310.7847,88.045,272.0755,0.00031555,4.739e-05,0.0,0 STARLINK-4047,1 53243U 22086B   24214.51075182  .00004739  00000-0  31555-3 0  9992,2 53243  53.2198 310.7847 0001854  88.0450 272.0755 15.08849213112407,6917.852,95.437,541.0,538.435,0.0
53243.0,STARLINK-4047,PAYLOAD,2024-08-01 15:26:13,15.08880927,0.0001503,53.2187,310.1919,111.9902,248.125,3.1065e-05,2.07e-06,0.0,0 STARLINK-4047,1 53243U 22086B   24214.64321755  .00000207  00000-0  31065-4 0  9999,2 53243  53.2187 310.1919 0001503 111.9902 248.1250 15.08880927112421,6917.755,95.435,540.66,538.581,0.0
53243.0,STARLINK-4047,PAYLOAD,2024-08-01 23:23:11,15.08842235,0.0001296,53.2178,308.7018,97.2436,262.8703,0.00019562,2.827e-05,0.0,0 STARLINK-4047,1 53243U 22086B   24214.97443779  .00002827  00000-0  19562-3 0  9993,2 53243  53.2178 308.7018 0001296  97.2436 262.8703 15.08842235112472,6917.874,95.437,540.635,538.842,0.0
53243.0,STARLINK-4047,PAYLOAD,2024-08-02 12:06:17,15.0883578,0.0001453,53.2174,306.3214,87.7888,272.3271,-7.9063e-05,-1.546e-05,0.0,0 STARLINK-4047,1 53243U 22086B   24215.50436390 -.00001546  00000-0 -79063-4 0  9996,2 53243  53.2174 306.3214 0001453  87.7888 272.3271 15.08835780112552,6917.893,95.438,540.763,538.753,0.0
53243.0,STARLINK-4047,PAYLOAD,2024-08-02 13:41:40,15.08839726,0.0001481,53.2179,306.0259,97.1343,262.9818,-1.1952e-06,-3.07e-06,0.0,0 STARLINK-4047,1 53243U 22086B   24215.57060195 -.00000307  00000-0 -11952-5 0  9997,2 53243  53.2179 306.0259 0001481  97.1343 262.9818 15.08839726113080,6917.881,95.438,540.771,538.722,0.0
53243.0,STARLINK-4047,PAYLOAD,2024-08-02 15:17:03,15.08841524,0.0001387,53.2173,305.7275,94.2011,265.914,2.1772e-05,5.9e-07,0.0,0 STARLINK-4047,1 53243U 22086B   24215.63684099  .00000059  00000-0  21772-4 0  9991,2 53243  53.2173 305.7275 0001387  94.2011 265.9140 15.08841524113094,6917.876,95.437,540.7,538.781,0.0
53243.0,STARLINK-4047,PAYLOAD,2024-08-03 05:35:31,15.08844417,0.000173,53.2179,303.0536,87.694,272.425,-7.667e-05,-1.508e-05,0.0,0 STARLINK-4047,1 53243U 22086B   24216.23300066 -.00001508  00000-0 -76670-4 0  9996,2 53243  53.2179 303.0536 0001730  87.6940 272.4250 15.08844417112661,6917.867,95.437,540.929,538.535,0.0
53243.0,STARLINK-4047,PAYLOAD,2024-08-03 13:32:26,15.08853001,0.0001253,53.2169,301.5666,104.2792,255.834,2.3912e-06,-2.5e-06,0.0,0 STARLINK-4047,1 53243U 22086B   24216.56419376 -.00000250  00000-0  23912-5 0  9991,2 53243  53.2169 301.5666 0001253 104.2792 255.8340 15.08853001113236,6917.841,95.437,540.572,538.839,0.0
53243.0,STARLINK-4047,PAYLOAD,2024-08-04 10:12:27,15.08845872,0.0001382,53.2162,297.7012,92.2184,267.8966,0.0002698,4.009e-05,0.0,0 STARLINK-4047,1 53243U 22086B   24217.42531800  .00004009  00000-0  26980-3 0  9995,2 53243  53.2162 297.7012 0001382  92.2184 267.8966 15.08845872112844,6917.862,95.437,540.683,538.771,0.0
53243.0,STARLINK-4047,PAYLOAD,2024-08-04 14:58:36,15.08860677,0.0001559,53.217,296.8036,114.1801,245.9354,0.00045349,6.941e-05,0.0,0 STARLINK-4047,1 53243U 22086B   24217.62403009  .00006941  00000-0  45349-3 0  9993,2 53243  53.2170 296.8036 0001559 114.1801 245.9354 15.08860677112876,6917.817,95.436,540.761,538.604,0.0
53243.0,STARLINK-4047,PAYLOAD,2024-08-05 08:27:50,15.08853847,0.0001512,53.2177,293.5297,102.4934,257.6227,0.00033415,5.036e-05,0.0,0 STARLINK-4047,1 53243U 22086B   24218.35266874  .00005036  00000-0  33415-3 0  9996,2 53243  53.2177 293.5297 0001512 102.4934 257.6227 15.08853847112984,6917.838,95.437,540.749,538.657,0.0
53243.0,STARLINK-4047,PAYLOAD,2024-08-05 11:38:36,15.08858161,0.0001547,53.2167,292.9417,89.9747,270.1423,0.00025084,3.708e-05,0.0,0 STARLINK-4047,1 53243U 22086B   24218.48514627  .00003708  00000-0  25084-3 0  9999,2 53243  53.2167 292.9417 0001547  89.9747 270.1423 15.08858161113522,6917.825,95.436,540.76,538.62,0.0
53243.0,STARLINK-4047,PAYLOAD,2024-08-06 08:18:38,15.08828477,0.0001573,53.2174,289.0685,106.9013,253.2151,-0.00021438,-3.697e-05,0.0,0 STARLINK-4047,1 53243U 22086B   24219.34627879 -.00003697  00000-0 -21438-3 0  9997,2 53243  53.2174 289.0685 0001573 106.9013 253.2151 15.08828477113133,6917.916,95.438,540.869,538.692,0.0
53243.0,STARLINK-4047,PAYLOAD,2024-08-06 14:40:11,15.0882153,0.000142,53.2168,287.8866,96.811,263.3043,-0.00032705,-5.486e-05,0.0,0 STARLINK-4047,1 53243U 22086B   24219.61124323 -.00005486  00000-0 -32705-3 0  9990,2 53243  53.2168 287.8866 0001420  96.8110 263.3043 15.08821530113695,6917.937,95.439,540.784,538.819,0.0
53243.0,STARLINK-4047,PAYLOAD,2024-08-07 09:44:49,15.08837751,0.0001506,53.2162,284.3199,96.0126,264.1038,0.0002188,3.196e-05,0.0,0 STARLINK-4047,1 53243U 22086B   24220.40612703  .00003196  00000-0  21880-3 0  9999,2 53243  53.2162 284.3199 0001506  96.0126 264.1038 15.08837751113295,6917.887,95.438,540.794,538.71,0.0
53243.0,STARLINK-4047,PAYLOAD,2024-08-08 09:35:36,15.08850749,0.000143,53.2157,279.8588,96.6746,263.4409,0.00049591,7.616e-05,0.0,0 STARLINK-4047,1 53243U 22086B   24221.39972458  .00007616  00000-0  49591-3 0  9994,2 53243  53.2157 279.8588 0001430  96.6746 263.4409 15.08850749113960,6917.848,95.437,540.702,538.723,0.0
53243.0,STARLINK-4047,PAYLOAD,2024-08-09 03:04:51,15.08839634,0.0001777,53.2175,276.5908,50.8648,309.2502,6.3639e-05,7.25e-06,0.0,0 STARLINK-4047,1 53243U 22086B   24222.12836866  .00000725  00000-0  63639-4 0  9992,2 53243  53.2175 276.5908 0001777  50.8648 309.2502 15.08839634113555,6917.882,95.438,540.976,538.517,0.0
53243.0,STARLINK-4047,PAYLOAD,2024-08-09 11:01:47,15.08827226,0.0001559,53.217,275.1001,73.7667,286.3497,0.00041119,6.26e-05,0.0,0 STARLINK-4047,1 53243U 22086B   24222.45957686  .00006260  00000-0  41119-3 0  9990,2 53243  53.2170 275.1001 0001559  73.7667 286.3497 15.08827226113600,6917.919,95.438,540.863,538.706,0.0
53243.0,STARLINK-4047,PAYLOAD,2024-08-09 14:12:33,15.08839233,0.000145,53.2169,274.5047,89.756,270.3598,0.00018838,2.711e-05,0.0,0 STARLINK-4047,1 53243U 22086B   24222.59204890  .00002711  00000-0  18838-3 0  9996,2 53243  53.2169 274.5047 0001450  89.7560 270.3598 15.08839233114146,6917.883,95.438,540.751,538.745,0.0
53243.0,STARLINK-4047,PAYLOAD,2024-08-10 12:27:56,15.08855277,0.0001487,53.2154,270.3403,88.1937,271.9225,0.00024513,3.617e-05,0.0,0 STARLINK-4047,1 53243U 22086B   24223.51940035  .00003617  00000-0  24513-3 0  9990,2 53243  53.2154 270.3403 0001487  88.1937 271.9225 15.08855277113768,6917.834,95.437,540.727,538.67,0.0
53243.0,STARLINK-4047,PAYLOAD,2024-08-11 02:46:25,15.08838629,0.0002036,53.2157,267.6659,82.5622,277.5602,0.00010532,1.388e-05,0.0,0 STARLINK-4047,1 53243U 22086B   24224.11557261  .00001388  00000-0  10532-3 0  9991,2 53243  53.2157 267.6659 0002036  82.5622 277.5602 15.08838629113856,6917.885,95.438,541.158,538.341,0.0
53243.0,STARLINK-4047,PAYLOAD,2024-08-11 20:15:39,15.08844908,0.0001485,53.2147,264.3934,99.8577,260.2583,0.00033064,4.979e-05,0.0,0 STARLINK-4047,1 53243U 22086B   24224.84421002  .00004979  00000-0  33064-3 0  9998,2 53243  53.2147 264.3934 0001485  99.8577 260.2583 15.08844908114486,6917.865,95.437,540.758,538.703,0.0
53243.0,STARLINK-4047,PAYLOAD,2024-08-12 08:58:44,15.08860356,0.000147,53.2146,262.0152,90.5459,269.5702,0.00079883,0.00012455,0.0,0 STARLINK-4047,1 53243U 22086B   24225.37412546  .00012455  00000-0  79883-3 0  9997,2 53243  53.2146 262.0152 0001470  90.5459 269.5702 15.08860356114045,6917.818,95.436,540.7,538.666,0.0
